NORAD_CAT_ID,OBJECT_NAME,OBJECT_TYPE,EPOCH,MEAN_MOTION,ECCENTRICITY,INCLINATION,RA_OF_ASC_NODE,ARG_OF_PERICENTER,MEAN_ANOMALY,BSTAR,MEAN_MOTION_DOT,MEAN_MOTION_DDOT,TLE_LINE0,TLE_LINE1,TLE_LINE2,SEMIMAJOR_AXIS,PERIOD,APOGEE,PERIGEE,DECAYED
54769.0,STARLINK-5404,PAYLOAD,2023-03-27 14:24:02,15.08865273,0.0001096,53.2171,203.8816,87.1901,272.9217,0.0021457,0.0003405,0.0,0 STARLINK-5404,1 54769U 22175M   23086.60002998  .00034050  00000-0  21457-2 0  9994,2 54769  53.2171 203.8816 0001096  87.1901 272.9217 15.08865273 17162,6917.803,95.436,540.426,538.91,0.0
54769.0,STARLINK-5404,PAYLOAD,2023-03-27 19:10:11,15.08871343,0.0001388,53.2173,202.9873,107.3458,252.7686,0.0015518,0.00024516,0.0,0 STARLINK-5404,1 54769U 22175M   23086.79874556  .00024516  00000-0  15518-2 0  9998,2 54769  53.2173 202.9873 0001388 107.3458 252.7686 15.08871343 17197,6917.785,95.436,540.61,538.689,0.0
54769.0,STARLINK-5404,PAYLOAD,2023-03-28 14:14:49,15.08864966,0.0001211,53.2168,199.42,80.1605,279.9523,0.0020061,0.00031805,0.0,0 STARLINK-5404,1 54769U 22175M   23087.59362628  .00031805  00000-0  20061-2 0  9997,2 54769  53.2168 199.4200 0001211  80.1605 279.9523 15.08864966 15150,6917.804,95.436,540.507,538.831,0.0
54769.0,STARLINK-5404,PAYLOAD,2023-03-28 19:00:58,15.08880664,0.000122,53.2165,198.5278,78.7337,281.3792,0.0024253,0.00038565,0.0,0 STARLINK-5404,1 54769U 22175M   23087.79234205  .00038565  00000-0  24253-2 0  9995,2 54769  53.2165 198.5278 0001220  78.7337 281.3792 15.08880664 17348,6917.756,95.435,540.465,538.777,0.0
54769.0,STARLINK-5404,PAYLOAD,2023-03-29 06:08:40,15.08841866,0.0001633,53.217,196.444,83.026,277.0917,0.00035221,5.322e-05,0.0,0 STARLINK-5404,1 54769U 22175M   23088.25602679  .00005322  00000-0  35221-3 0  9994,2 54769  53.2170 196.4440 0001633  83.0260 277.0917 15.08841866 15254,6917.875,95.437,540.869,538.61,0.0
54769.0,STARLINK-5404,PAYLOAD,2023-03-29 12:30:13,15.08863138,0.0001243,53.2168,195.2581,67.9743,292.1381,0.0023356,0.00037103,0.0,0 STARLINK-5404,1 54769U 22175M   23088.52098455  .00037103  00000-0  23356-2 0  9992,2 54769  53.2168 195.2581 0001243  67.9743 292.1381 15.08863138 15291,6917.81,95.436,540.535,538.815,0.0
54769.0,STARLINK-5404,PAYLOAD,2023-03-29 18:51:45,15.08885237,0.00013,53.2169,194.0678,75.6916,284.422,0.0026395,0.00042022,0.0,0 STARLINK-5404,1 54769U 22175M   23088.78593792  .00042022  00000-0  26395-2 0  9996,2 54769  53.2169 194.0678 0001300  75.6916 284.4220 15.08885237 17492,6917.742,95.435,540.506,538.708,0.0
54769.0,STARLINK-5404,PAYLOAD,2023-03-29 23:37:54,15.08853606,5.59e-05,53.2171,193.1766,134.9781,225.1257,-5.5701e-05,-1.174e-05,0.0,0 STARLINK-5404,1 54769U 22175M   23088.98465490 -.00001174  00000-0 -55701-4 0  9991,2 54769  53.2171 193.1766 0000559 134.9781 225.1257 15.08853606 15368,6917.839,95.437,540.091,539.317,0.0
54769.0,STARLINK-5404,PAYLOAD,2023-03-30 13:56:23,15.08842962,0.0001525,53.2163,190.4999,82.5111,277.6054,0.0018959,0.00030017,0.0,0 STARLINK-5404,1 54769U 22175M   23089.58082954  .00030017  00000-0  18959-2 0  9996,2 54769  53.2163 190.4999 0001525  82.5111 277.6054 15.08842962 15456,6917.871,95.437,540.791,538.681,0.0
54769.0,STARLINK-5404,PAYLOAD,2023-03-30 23:28:42,15.08838565,0.0001882,53.2167,188.7136,85.3747,274.746,0.0015375,0.00024265,0.0,0 STARLINK-5404,1 54769U 22175M   23089.97827382  .00024265  00000-0  15375-2 0  9998,2 54769  53.2167 188.7136 0001882  85.3747 274.7460 15.08838565 15515,6917.885,95.438,541.052,538.448,0.0
54769.0,STARLINK-5404,PAYLOAD,2023-03-31 18:33:19,15.08891462,0.0001673,53.2162,185.1474,88.3668,271.7515,0.0021684,0.0003444,0.0,0 STARLINK-5404,1 54769U 22175M   23090.77313896  .00034440  00000-0  21684-2 0  9994,2 54769  53.2162 185.1474 0001673  88.3668 271.7515 15.08891462 15635,6917.723,95.434,540.745,538.431,0.0
54769.0,STARLINK-5404,PAYLOAD,2023-03-31 23:19:29,15.08840441,0.0001501,53.2163,184.2576,72.9662,287.1495,-0.00047953,-7.912e-05,0.0,0 STARLINK-5404,1 54769U 22175M   23090.97186370 -.00007912  00000-0 -47953-3 0  9995,2 54769  53.2163 184.2576 0001501  72.9662 287.1495 15.08840441 15664,6917.879,95.438,540.782,538.706,0.0
54769.0,STARLINK-5404,PAYLOAD,2023-04-01 12:02:35,15.08819406,0.0001679,53.2167,181.8777,72.9596,287.158,0.00081103,0.00012636,0.0,0 STARLINK-5404,1 54769U 22175M   23091.50179534  .00012636  00000-0  81103-3 0  9991,2 54769  53.2167 181.8777 0001679  72.9596 287.1580 15.08819406 17907,6917.943,95.439,540.97,538.647,0.0
54769.0,STARLINK-5404,PAYLOAD,2023-04-01 13:37:58,15.08821036,0.0001612,53.2166,181.5803,71.912,288.2048,0.0013395,0.00021083,0.0,0 STARLINK-5404,1 54769U 22175M   23091.56803676  .00021083  00000-0  13395-2 0  9991,2 54769  53.2166 181.5803 0001612  71.9120 288.2048 15.08821036 15756,6917.938,95.439,540.919,538.688,0.0
54769.0,STARLINK-5404,PAYLOAD,2023-04-01 18:24:07,15.08839341,0.0001643,53.2156,180.6874,69.4841,290.6328,0.0025933,0.00041225,0.0,0 STARLINK-5404,1 54769U 22175M   23091.76675843  .00041225  00000-0  25933-2 0  9997,2 54769  53.2156 180.6874 0001643  69.4841 290.6328 15.08839341 17948,6917.882,95.438,540.884,538.611,0.0
54769.0,STARLINK-5404,PAYLOAD,2023-04-02 10:17:59,15.08865543,0.00013,53.2155,177.7147,66.5656,293.5473,0.0023471,0.0003729,0.0,0 STARLINK-5404,1 54769U 22175M   23092.42915712  .00037290  00000-0  23471-2 0  9995,2 54769  53.2155 177.7147 0001300  66.5656 293.5473 15.08865543 18047,6917.802,95.436,540.567,538.768,0.0
54769.0,STARLINK-5404,PAYLOAD,2023-04-02 15:04:08,15.08882472,0.0001593,53.2158,176.822,69.5677,290.5486,0.0027357,0.00043571,0.0,0 STARLINK-5404,1 54769U 22175M   23092.62787349  .00043571  00000-0  27357-2 0  9996,2 54769  53.2158 176.8220 0001593  69.5677 290.5486 15.08882472 15916,6917.751,95.435,540.718,538.514,0.0
54769.0,STARLINK-5404,PAYLOAD,2023-04-02 18:14:54,15.08891002,0.0001495,53.2159,176.2262,71.595,288.5205,0.0023908,0.0003802,0.0,0 STARLINK-5404,1 54769U 22175M   23092.76034843  .00038020  00000-0  23908-2 0  9996,2 54769  53.2159 176.2262 0001495  71.5950 288.5205 15.08891002 18092,6917.725,95.434,540.624,538.555,0.0
54769.0,STARLINK-5404,PAYLOAD,2023-04-03 10:08:45,15.08850353,0.0001311,53.2161,173.2533,70.6049,289.5085,0.0018605,0.00029454,0.0,0 STARLINK-5404,1 54769U 22175M   23093.42275360  .00029454  00000-0  18605-2 0  9990,2 54769  53.2161 173.2533 0001311  70.6049 289.5085 15.08850353 16032,6917.849,95.437,540.621,538.807,0.0
54769.0,STARLINK-5404,PAYLOAD,2023-04-03 16:30:18,15.08854697,0.0001613,53.217,172.0632,83.8063,276.3113,0.0017107,0.00027054,0.0,0 STARLINK-5404,1 54769U 22175M   23093.68771256  .00027054  00000-0  17107-2 0  9993,2 54769  53.2170 172.0632 0001613  83.8063 276.3113 15.08854697 18231,6917.835,95.437,540.816,538.585,0.0
54769.0,STARLINK-5404,PAYLOAD,2023-04-04 11:34:56,15.08854295,0.0001655,53.2172,168.4967,84.7432,275.3748,0.00097956,0.00015342,0.0,0 STARLINK-5404,1 54769U 22175M   23094.48259463  .00015342  00000-0  97956-3 0  9991,2 54769  53.2172 168.4967 0001655  84.7432 275.3748 15.08854295 16199,6917.837,95.437,540.847,538.557,0.0
54769.0,STARLINK-5404,PAYLOAD,2023-04-04 16:21:05,15.08857054,0.0001617,53.2176,167.6008,96.4584,263.6592,0.0012968,0.0002042,0.0,0 STARLINK-5404,1 54769U 22175M   23094.68131256  .00020420  00000-0  12968-2 0  9994,2 54769  53.2176 167.6008 0001617  96.4584 263.6592 15.08857054 18382,6917.828,95.436,540.812,538.575,0.0
54769.0,STARLINK-5404,PAYLOAD,2023-04-05 11:25:43,15.08834938,0.0001607,53.217,164.0355,100.9753,259.142,0.00043168,6.588e-05,0.0,0 STARLINK-5404,1 54769U 22175M   23095.47619877  .00006588  00000-0  43168-3 0  9998,2 54769  53.2170 164.0355 0001607 100.9753 259.1420 15.08834938 18500,6917.896,95.438,540.873,538.649,0.0
54769.0,STARLINK-5404,PAYLOAD,2023-04-05 20:58:02,15.08837911,0.0001068,53.2172,162.2527,158.6245,201.4792,0.00022814,3.345e-05,0.0,0 STARLINK-5404,1 54769U 22175M   23095.87363562  .00003345  00000-0  22814-3 0  9992,2 54769  53.2172 162.2527 0001068 158.6245 201.4792 15.08837911 18562,6917.887,95.438,540.491,539.013,0.0
54769.0,STARLINK-5404,PAYLOAD,2023-04-06 12:51:53,15.08857538,0.0001323,53.2164,159.2779,97.5899,262.5243,0.0012217,0.00019218,0.0,0 STARLINK-5404,1 54769U 22175M   23096.53603569  .00019218  00000-0  12217-2 0  9991,2 54769  53.2164 159.2779 0001323  97.5899 262.5243 15.08857538 16506,6917.827,95.436,540.607,538.777,0.0
54769.0,STARLINK-5404,PAYLOAD,2023-04-06 20:48:49,15.08850437,0.0001222,53.2163,157.7912,82.6552,277.4579,0.00071989,0.00011191,0.0,0 STARLINK-5404,1 54769U 22175M   23096.86723513  .00011191  00000-0  71989-3 0  9993,2 54769  53.2163 157.7912 0001222  82.6552 277.4579 15.08850437 16559,6917.848,95.437,540.559,538.868,0.0
54769.0,STARLINK-5404,PAYLOAD,2023-04-07 12:42:40,15.08842365,0.0001596,53.2173,154.8203,105.2322,254.8847,7.22e-05,8.61e-06,0.0,0 STARLINK-5404,1 54769U 22175M   23097.52963666  .00000861  00000-0  72200-4 0  9992,2 54769  53.2173 154.8203 0001596 105.2322 254.8847 15.08842365 16651,6917.873,95.437,540.842,538.634,0.0
54769.0,STARLINK-5404,PAYLOAD,2023-04-08 03:01:09,15.08837119,0.0001312,53.2161,152.14,91.3982,268.716,8.1145e-05,1.004e-05,0.0,0 STARLINK-5404,1 54769U 22175M   23098.12580022  .00001004  00000-0  81145-4 0  9998,2 54769  53.2161 152.1400 0001312  91.3982 268.7160 15.08837119 16744,6917.889,95.438,540.662,538.847,0.0
54769.0,STARLINK-5404,PAYLOAD,2023-04-08 10:58:04,15.0884305,0.0001536,53.2167,150.6542,91.3036,268.8132,9.7167e-05,1.259e-05,0.0,0 STARLINK-5404,1 54769U 22175M   23098.45699694  .00001259  00000-0  97167-4 0  9993,2 54769  53.2167 150.6542 0001536  91.3036 268.8132 15.08843050 18954,6917.871,95.437,540.799,538.673,0.0
54769.0,STARLINK-5404,PAYLOAD,2023-04-09 02:51:56,15.08827997,0.000114,53.217,147.6804,78.453,281.659,-2.8942e-05,-7.48e-06,0.0,0 STARLINK-5404,1 54769U 22175M   23099.11940545 -.00000748  00000-0 -28942-4 0  9990,2 54769  53.2170 147.6804 0001140  78.4530 281.6590 15.08827997 16895,6917.917,95.438,540.571,538.993,0.0
